ALOS (DAICHI)           
1 28931U 06002A   25340.63520141  .00003003  00000+0  51517-3 0  9994
2 28931  98.1085 292.1658 0000826 112.4143 247.7151 14.69459498 59810
H-2A R/B                
1 28932U 06002B   25340.64076446  .00017366  00000+0  91471-3 0  9990
2 28932  98.2320 114.8925 0054457 197.0027 162.9380 15.14382070 80346
RESURS-DK 1             
1 29228U 06021A   25340.41377127  .00005256  00000+0  31038-3 0  9993
2 29228  69.9340 118.1849 0007761 263.4376  96.5906 15.12107015 73424
CZ-4B R/B               
1 29507U 06046C   25340.62992931  .00008127  00000+0  42353-3 0  9991
2 29507  97.5736  20.7850 0032866 228.2352 131.6070 15.15779727 45944
CZ-2C R/B               
1 31114U 07010B   25340.58931934  .00000342  00000+0  17635-3 0  9997
2 31114  98.3974  93.5498 0058647 203.9434 155.9014 14.20205945966508
COSMO-SKYMED 1          
1 31598U 07023A   25340.56663446  .00005978  00000+0  54227-3 0  9993
2 31598  97.8835 165.9259 0001162  78.6726 281.4625 14.95696573   981
COSMOS 2428             
1 31792U 07029A   25340.57895186  .00000102  00000+0  80519-4 0  9992
2 31792  70.9372  38.8151 0003316  32.6739 327.4587 14.12887833950949
SL-16 R/B               
1 31793U 07029B   25340.54077216 -.00000166  00000+0 -61005-4 0  9997
2 31793  70.9765   8.1892 0002365 264.4837 257.2055 14.14815650952194
KORONAS-FOTON           
1 33504U 09003A   25340.58592353  .00015228  00000+0  36753-3 0  9995
2 33504  82.4307  12.4814 0012931 127.8771 232.3647 15.40976621931393
CZ-2C R/B               
1 37731U 11030B   25340.66879294  .00003209  00000+0  41308-3 0  9993
2 37731  97.8408 294.9099 0051530 293.9644 239.4474 14.80870576776326
H-2A R/B                
1 38341U 12025E   25340.61363438  .00006016  00000+0  55446-3 0  9996
2 38341  98.4589 295.3713 0043810 256.8470 102.7857 14.94385182734315
SHIJIAN-16 (SJ-16)      
1 39358U 13057A   25340.56729873  .00002167  00000+0  21625-3 0  9999
2 39358  74.9725   1.3331 0017507 334.3387  25.6931 14.91961721657618
